INNOSAT 3 (RS92S0)      
1 64894U 25155U   26064.29595580  .00043172  00000+0  12167-2 0  9995
2 64894  97.4423  33.9375 0005635 158.2890 201.8593 15.36288548 64978
