[{"OBJECT_NAME":"INNOSAT 3 (RS92S0)","OBJECT_ID":"2025-155U","EPOCH":"2026-03-05T07:06:10.581120","MEAN_MOTION":15.36288548,"ECCENTRICITY":0.00056351,"INCLINATION":97.4423,"RA_OF_ASC_NODE":33.9375,"ARG_OF_PERICENTER":158.289,"MEAN_ANOMALY":201.8593,"EPHEMERIS_TYPE":0,"CLASSIFICATION_TYPE":"U","NORAD_CAT_ID":64894,"ELEMENT_SET_NO":999,"REV_AT_EPOCH":6497,"BSTAR":0.0012167018,"MEAN_MOTION_DOT":0.00043172,"MEAN_MOTION_DDOT":0}]
